[{"OBJECT_NAME":"STARLINK-34455","OBJECT_ID":"2025-198F","EPOCH":"2026-03-09T23:11:26.964384","MEAN_MOTION":15.30203549,"ECCENTRICITY":6.982e-5,"INCLINATION":53.1579,"RA_OF_ASC_NODE":269.629,"ARG_OF_PERICENTER":89.2592,"MEAN_ANOMALY":270.8489,"EPHEMERIS_TYPE":0,"CLASSIFICATION_TYPE":"U","NORAD_CAT_ID":65497,"ELEMENT_SET_NO":999,"REV_AT_EPOCH":2866,"BSTAR":0.0011076926,"MEAN_MOTION_DOT":0.00032595,"MEAN_MOTION_DDOT":0},{"OBJECT_NAME":"COSMOS 1953","OBJECT_ID":"1988-050A","EPOCH":"2026-03-09T18:09:26.993952","MEAN_MOTION":15.28528086,"ECCENTRICITY":0.00124769,"INCLINATION":82.5105,"RA_OF_ASC_NODE":158.18,"ARG_OF_PERICENTER":122.2454,"MEAN_ANOMALY":237.9996,"EPHEMERIS_TYPE":0,"CLASSIFICATION_TYPE":"U","NORAD_CAT_ID":19210,"ELEMENT_SET_NO":999,"REV_AT_EPOCH":3779,"BSTAR":0.00029210954,"MEAN_MOTION_DOT":8.158e-5,"MEAN_MOTION_DDOT":0}]
